ORBCOMM-X               
1 21576U 91050C   25210.73619050  .00000296  00000+0  10073-3 0  9997
2 21576  98.3410 276.4647 0004705  67.5547 292.6142 14.43288615788252
ORBCOMM FM01            
1 23545U 95017A   25210.75491699  .00006085  00000+0  63092-3 0  9992
2 23545  69.9651 327.9578 0005637 258.9147 101.1374 14.90459004618856
ORBCOMM FM02            
1 23546U 95017B   25210.80620685  .00007405  00000+0  74809-3 0  9993
2 23546  69.9669 347.0788 0006974 256.0681 103.9699 14.91392214618512
ORBCOMM FM08            
1 25112U 97084A   25210.60530931  .00001539  00000+0  46896-3 0  9999
2 25112  45.0129 164.2233 0004633  87.2633 272.8749 14.45909350447510
ORBCOMM FM10            
1 25113U 97084B   25210.59268351  .00001454  00000+0  44750-3 0  9995
2 25113  45.0141 166.7388 0004355  40.1191 319.9981 14.45692544622656
ORBCOMM FM11            
1 25114U 97084C   25210.60458284  .00001362  00000+0  42381-3 0  9990
2 25114  45.0127 167.3917 0005005  45.9969 314.1295 14.45440916447615
ORBCOMM FM12            
1 25115U 97084D   25210.56644645  .00001333  00000+0  41539-3 0  9996
2 25115  45.0134 167.3202 0004270  37.4295 322.6853 14.45463330447644
ORBCOMM FM09            
1 25116U 97084E   25210.87891554  .00001401  00000+0  43576-3 0  9993
2 25116  45.0137 166.7967 0005784  35.7416 324.3822 14.45338594447655
